NORAD_CAT_ID,OBJECT_NAME,OBJECT_TYPE,EPOCH,MEAN_MOTION,ECCENTRICITY,INCLINATION,RA_OF_ASC_NODE,ARG_OF_PERICENTER,MEAN_ANOMALY,BSTAR,MEAN_MOTION_DOT,MEAN_MOTION_DDOT,TLE_LINE0,TLE_LINE1,TLE_LINE2,SEMIMAJOR_AXIS,PERIOD,APOGEE,PERIGEE,DECAYED
53922.0,STARLINK-5002,PAYLOAD,2023-10-31 22:16:35,15.08839605,0.0001108,53.2166,213.4909,104.7871,255.3243,0.00025511,3.775e-05,0.0,0 STARLINK-5002,1 53922U 22119AN  23304.92819197  .00003775  00000-0  25511-3 0  9993,2 53922  53.2166 213.4909 0001108 104.7871 255.3243 15.08839605 62032,6917.882,95.438,540.513,538.98,0.0
53922.0,STARLINK-5002,PAYLOAD,2023-11-01 03:02:45,15.08847783,0.0001184,53.2165,212.598,90.7828,269.33,0.00036231,5.484e-05,0.0,0 STARLINK-5002,1 53922U 22119AN  23305.12690980  .00005484  00000-0  36231-3 0  9993,2 53922  53.2165 212.5980 0001184  90.7828 269.3300 15.08847783 62068,6917.857,95.437,540.541,538.903,0.0
53922.0,STARLINK-5002,PAYLOAD,2023-11-01 22:07:22,15.08841451,0.0001345,53.2173,209.027,75.7538,284.3603,0.00013701,1.893e-05,0.0,0 STARLINK-5002,1 53922U 22119AN  23305.92179243  .00001893  00000-0  13701-3 0  9992,2 53922  53.2173 209.0270 0001345  75.7538 284.3603 15.08841451 62182,6917.876,95.437,540.671,538.81,0.0
53922.0,STARLINK-5002,PAYLOAD,2023-11-02 02:53:31,15.08851542,0.0001347,53.2168,208.1349,84.0465,276.0681,0.00033375,5.029e-05,0.0,0 STARLINK-5002,1 53922U 22119AN  23306.12050802  .00005029  00000-0  33375-3 0  9998,2 53922  53.2168 208.1349 0001347  84.0465 276.0681 15.08851542 61799,6917.845,95.437,540.642,538.778,0.0
53922.0,STARLINK-5002,PAYLOAD,2023-11-02 10:50:28,15.08838292,0.0001677,53.2162,206.6519,77.1066,283.0113,4.5555e-05,4.37e-06,0.0,0 STARLINK-5002,1 53922U 22119AN  23306.45171443  .00000437  00000-0  45555-4 0  9991,2 53922  53.2162 206.6519 0001677  77.1066 283.0113 15.08838292 61842,6917.886,95.438,540.911,538.59,0.0
53922.0,STARLINK-5002,PAYLOAD,2023-11-02 21:58:10,15.08839445,0.0001475,53.2178,204.5666,80.3816,279.7343,8.32e-05,1.036e-05,0.0,0 STARLINK-5002,1 53922U 22119AN  23306.91539385  .00001036  00000-0  83200-4 0  9990,2 53922  53.2178 204.5666 0001475  80.3816 279.7343 15.08839445 62337,6917.882,95.438,540.767,538.727,0.0
53922.0,STARLINK-5002,PAYLOAD,2023-11-03 10:41:15,15.08837113,0.0001623,53.2169,202.1861,97.3834,262.7343,5.8246e-05,6.39e-06,0.0,0 STARLINK-5002,1 53922U 22119AN  23307.44531488  .00000639  00000-0  58246-4 0  9995,2 53922  53.2169 202.1861 0001623  97.3834 262.7343 15.08837113 62412,6917.889,95.438,540.877,538.631,0.0
53922.0,STARLINK-5002,PAYLOAD,2023-11-03 21:48:56,15.08845104,0.0001486,53.2157,200.1052,95.2419,264.8743,0.00013633,1.883e-05,0.0,0 STARLINK-5002,1 53922U 22119AN  23307.90899200  .00001883  00000-0  13633-3 0  9997,2 53922  53.2157 200.1052 0001486  95.2419 264.8743 15.08845104 62485,6917.865,95.437,540.758,538.702,0.0
53922.0,STARLINK-5002,PAYLOAD,2023-11-04 02:35:06,15.0885112,0.0001439,53.2163,199.2134,98.4646,261.651,0.00027429,4.081e-05,0.0,0 STARLINK-5002,1 53922U 22119AN  23308.10770993  .00004081  00000-0  27429-3 0  9998,2 53922  53.2163 199.2134 0001439  98.4646 261.6510 15.08851120 62095,6917.846,95.437,540.707,538.716,0.0
53922.0,STARLINK-5002,PAYLOAD,2023-11-04 10:32:02,15.08844824,0.0001514,53.217,197.7255,94.4376,265.6789,0.00016955,2.412e-05,0.0,0 STARLINK-5002,1 53922U 22119AN  23308.43891249  .00002412  00000-0  16955-3 0  9990,2 53922  53.2170 197.7255 0001514  94.4376 265.6789 15.08844824 62141,6917.866,95.437,540.778,538.683,0.0
53922.0,STARLINK-5002,PAYLOAD,2023-11-04 23:15:07,15.08847236,0.0001651,53.2168,195.3498,92.2816,267.8365,0.000279,4.156e-05,0.0,0 STARLINK-5002,1 53922U 22119AN  23308.96883377  .00004156  00000-0  27900-3 0  9990,2 53922  53.2168 195.3498 0001651  92.2816 267.8365 15.08847236 62647,6917.858,95.437,540.865,538.581,0.0
53922.0,STARLINK-5002,PAYLOAD,2023-11-05 02:25:53,15.08854298,0.0001665,53.2172,194.7534,94.584,265.5343,0.0004441,6.79e-05,0.0,0 STARLINK-5002,1 53922U 22119AN  23309.10131102  .00006790  00000-0  44410-3 0  9990,2 53922  53.2172 194.7534 0001665  94.5840 265.5343 15.08854298 62662,6917.837,95.437,540.854,538.55,0.0
53922.0,STARLINK-5002,PAYLOAD,2023-11-05 19:55:07,15.08863294,0.0001654,53.2168,191.481,93.4076,266.7105,0.00055059,8.491e-05,0.0,0 STARLINK-5002,1 53922U 22119AN  23309.82994346  .00008491  00000-0  55059-3 0  9997,2 53922  53.2168 191.4810 0001654  93.4076 266.7105 15.08863294 62356,6917.809,95.436,540.818,538.53,0.0
53922.0,STARLINK-5002,PAYLOAD,2023-11-05 23:05:52,15.08898351,0.000157,53.2158,190.8888,94.5972,265.5199,0.0019581,0.00031063,0.0,0 STARLINK-5002,1 53922U 22119AN  23309.96241683  .00031063  00000-0  19581-2 0  9991,2 53922  53.2158 190.8888 0001570  94.5972 265.5199 15.08898351 62797,6917.702,95.434,540.653,538.481,0.0
53922.0,STARLINK-5002,PAYLOAD,2023-11-06 02:16:38,15.08922467,0.0001471,53.216,190.293,95.6985,264.4175,0.0027457,0.00043781,0.0,0 STARLINK-5002,1 53922U 22119AN  23310.09488943  .00043781  00000-0  27457-2 0  9990,2 53922  53.2160 190.2930 0001471  95.6985 264.4175 15.08922467 62392,6917.628,95.432,540.511,538.476,0.0
53922.0,STARLINK-5002,PAYLOAD,2023-11-06 08:38:11,15.08874165,0.0002999,53.2166,189.1036,100.9027,259.2303,0.00084427,0.00013187,0.0,0 STARLINK-5002,1 53922U 22119AN  23310.35985367  .00013187  00000-0  84427-3 0  9999,2 53922  53.2166 189.1036 0002999 100.9027 259.2303 15.08874165 62436,6917.776,95.435,541.716,537.566,0.0
53922.0,STARLINK-5002,PAYLOAD,2023-11-06 19:45:53,15.08822587,9.54e-05,53.2167,187.0234,82.4787,277.6314,0.00074442,0.00011574,0.0,0 STARLINK-5002,1 53922U 22119AN  23310.82354074  .00011574  00000-0  74442-3 0  9990,2 53922  53.2167 187.0234 0000954  82.4787 277.6314 15.08822587 62505,6917.934,95.439,540.459,539.139,0.0
53922.0,STARLINK-5002,PAYLOAD,2023-11-06 22:56:40,15.0878374,0.0001345,53.2165,186.428,88.8989,271.2157,-0.0013124,-0.00021082,0.0,0 STARLINK-5002,1 53922U 22119AN  23310.95602701 -.00021082  00000-0 -13124-2 0  9993,2 53922  53.2165 186.4280 0001345  88.8989 271.2157 15.08783740 62946,6918.052,95.441,540.848,538.987,0.0
53922.0,STARLINK-5002,PAYLOAD,2023-11-07 02:07:27,15.08775783,0.0001136,53.2162,185.8337,85.6164,274.4958,-0.00019853,-3.44e-05,0.0,0 STARLINK-5002,1 53922U 22119AN  23311.08851430 -.00003440  00000-0 -19853-3 0  9997,2 53922  53.2162 185.8337 0001136  85.6164 274.4958 15.08775783 62545,6918.077,95.442,540.728,539.156,0.0
53922.0,STARLINK-5002,PAYLOAD,2023-11-07 08:29:01,15.08782853,0.0001287,53.2164,184.6453,92.8692,267.2447,0.0016996,0.00026822,0.0,0 STARLINK-5002,1 53922U 22119AN  23311.35348705  .00026822  00000-0  16996-2 0  9994,2 53922  53.2164 184.6453 0001287  92.8692 267.2447 15.08782853 62589,6918.055,95.441,540.81,539.03,0.0
53922.0,STARLINK-5002,PAYLOAD,2023-11-07 22:47:30,15.08818112,0.0001237,53.2156,181.9687,93.9794,266.1339,0.0017881,0.00028267,0.0,0 STARLINK-5002,1 53922U 22119AN  23311.94966161  .00028267  00000-0  17881-2 0  9990,2 53922  53.2156 181.9687 0001237  93.9794 266.1339 15.08818112 63092,6917.947,95.439,540.668,538.957,0.0
53922.0,STARLINK-5002,PAYLOAD,2023-11-08 19:27:30,15.08876717,0.000374,53.2155,178.1026,159.9103,200.2037,0.0020747,0.00032922,0.0,0 STARLINK-5002,1 53922U 22119AN  23312.81077330  .00032922  00000-0  20747-2 0  9996,2 53922  53.2155 178.1026 0003740 159.9103 200.2037 15.08876717 62801,6917.768,95.435,542.22,537.046,0.0
53922.0,STARLINK-5002,PAYLOAD,2023-11-08 22:38:17,15.08867685,0.0001245,53.2154,177.5081,95.2578,264.8556,0.0014914,0.00023545,0.0,0 STARLINK-5002,1 53922U 22119AN  23312.94325733  .00023545  00000-0  14914-2 0  9993,2 53922  53.2154 177.5081 0001245  95.2578 264.8556 15.08867685 63245,6917.796,95.436,540.522,538.8,0.0
53922.0,STARLINK-5002,PAYLOAD,2023-11-09 00:13:40,15.08872892,0.0001186,53.2152,177.2117,93.5166,266.5962,0.0016367,0.0002588,0.0,0 STARLINK-5002,1 53922U 22119AN  23313.00949601  .00025880  00000-0  16367-2 0  9995,2 53922  53.2152 177.2117 0001186  93.5166 266.5962 15.08872892 62838,6917.78,95.435,540.465,538.824,0.0
53922.0,STARLINK-5002,PAYLOAD,2023-11-09 19:18:17,15.08872945,8.16e-05,53.2147,173.6549,85.0827,275.0258,0.001452,0.00022917,0.0,0 STARLINK-5002,1 53922U 22119AN  23313.80436730  .00022917  00000-0  14520-2 0  9994,2 53922  53.2147 173.6549 0000816  85.0827 275.0258 15.08872945 62955,6917.78,95.435,540.209,539.08,0.0
53922.0,STARLINK-5002,PAYLOAD,2023-11-09 22:29:03,15.08874144,0.0001248,53.2148,173.0472,90.8216,269.2919,0.0012014,0.00018902,0.0,0 STARLINK-5002,1 53922U 22119AN  23313.93684376  .00018902  00000-0  12014-2 0  9994,2 53922  53.2148 173.0472 0001248  90.8216 269.2919 15.08874144 63392,6917.776,95.435,540.504,538.778,0.0
53922.0,STARLINK-5002,PAYLOAD,2023-11-10 00:04:26,15.08855004,0.0001034,53.2148,172.7491,107.8799,252.2306,0.00040997,6.245e-05,0.0,0 STARLINK-5002,1 53922U 22119AN  23314.00308304  .00006245  00000-0  40997-3 0  9996,2 53922  53.2148 172.7491 0001034 107.8799 252.2306 15.08855004 62987,6917.835,95.437,540.415,538.984,0.0
53922.0,STARLINK-5002,PAYLOAD,2023-11-10 08:01:21,15.08856356,0.000139,53.2145,171.2622,93.5555,266.5596,0.0008827,0.00013794,0.0,0 STARLINK-5002,1 53922U 22119AN  23314.33428167  .00013794  00000-0  88270-3 0  9995,2 53922  53.2145 171.2622 0001390  93.5555 266.5596 15.08856356 63453,6917.83,95.437,540.657,538.734,0.0
53922.0,STARLINK-5002,PAYLOAD,2023-11-10 20:44:26,15.08846103,0.0001517,53.2149,168.8812,101.1739,258.9424,0.00017895,2.562e-05,0.0,0 STARLINK-5002,1 53922U 22119AN  23314.86420038  .00002562  00000-0  17895-3 0  9998,2 53922  53.2149 168.8812 0001517 101.1739 258.9424 15.08846103 63118,6917.862,95.437,540.776,538.677,0.0
53922.0,STARLINK-5002,PAYLOAD,2023-11-10 23:55:13,15.08850908,0.0001556,53.2153,168.2869,99.054,261.0628,2.1406e-05,5.3e-07,0.0,0 STARLINK-5002,1 53922U 22119AN  23314.99667934  .00000053  00000-0  21406-4 0  9997,2 53922  53.2153 168.2869 0001556  99.0540 261.0628 15.08850908 63554,6917.847,95.437,540.788,538.636,0.0
